{
    "links": {
        "self": "http://www.neowsapp.com/rest/v1/neo/3741972?api_key=iIulBulltgU6a56xZRHN4H3l9WmuAYTsLGpBGhQ2"
    },
    "id": "3741972",
    "neo_reference_id": "3741972",
    "name": "(2016 BW80)",
    "designation": "2016 BW80",
    "nasa_jpl_url": "http://ssd.jpl.nasa.gov/sbdb.cgi?sstr=3741972",
    "absolute_magnitude_h": 25.8,
    "estimated_diameter": {
        "kilometers": {
            "estimated_diameter_min": 0.0183888672,
            "estimated_diameter_max": 0.0411187571
        },
        "meters": {
            "estimated_diameter_min": 18.388867207,
            "estimated_diameter_max": 41.1187571041
        },
        "miles": {
            "estimated_diameter_min": 0.0114263088,
            "estimated_diameter_max": 0.0255500032
        },
        "feet": {
            "estimated_diameter_min": 60.3309310875,
            "estimated_diameter_max": 134.9040630575
        }
    },
    "is_potentially_hazardous_asteroid": false,
    "close_approach_data": [
        {
            "close_approach_date": "2016-01-30",
            "close_approach_date_full": "2016-Jan-30 22:47",
            "epoch_date_close_approach": 1454194020000,
            "relative_velocity": {
                "kilometers_per_second": "3.8233119771",
                "kilometers_per_hour": "13763.9231174228",
                "miles_per_hour": "8552.3665614898"
            },
            "miss_distance": {
                "astronomical": "0.0942086725",
                "lunar": "36.6471736025",
                "kilometers": "14093416.741527575",
                "miles": "8757243.084427535"
            },
            "orbiting_body": "Earth"
        }
    ],
    "orbital_data": {
        "orbit_id": "5",
        "orbit_determination_date": "2017-04-06 08:28:45",
        "first_observation_date": "2016-01-31",
        "last_observation_date": "2016-02-16",
        "data_arc_in_days": 16,
        "observations_used": 16,
        "orbit_uncertainty": "7",
        "minimum_orbit_intersection": ".0918164",
        "jupiter_tisserand_invariant": "4.029",
        "epoch_osculation": "2459000.5",
        "eccentricity": ".3887634306989602",
        "semi_major_axis": "1.759289733475298",
        "inclination": "1.917952141933099",
        "ascending_node_longitude": "100.066181654158",
        "orbital_period": "852.3235324307137",
        "perihelion_distance": "1.075342221095982",
        "perihelion_argument": "31.69579197441443",
        "aphelion_distance": "2.443237245854614",
        "perihelion_time": "2459123.887360488682",
        "mean_anomaly": "307.8842856195146",
        "mean_motion": ".4223748216517356",
        "equinox": "J2000",
        "orbit_class": {
            "orbit_class_type": "AMO",
            "orbit_class_description": "Near-Earth asteroid orbits similar to that of 1221 Amor",
            "orbit_class_range": "1.017 AU < q (perihelion) < 1.3 AU"
        }
    },
    "is_sentry_object": false
}